[
  {
    "OBJECT_NAME": "STARLINK-32774",
    "OBJECT_ID": "2025-014C",
    "EPOCH": "2025-05-04T06:00:02.000160",
    "MEAN_MOTION": 15.27598211,
    "ECCENTRICITY": 0.0001308,
    "INCLINATION": 42.9994,
    "RA_OF_ASC_NODE": 105.169,
    "ARG_OF_PERICENTER": 272.1789,
    "MEAN_ANOMALY": 149.0775,
    "EPHEMERIS_TYPE": 0,
    "CLASSIFICATION_TYPE": "U",
    "NORAD_CAT_ID": 62737,
    "ELEMENT_SET_NO": 999,
    "REV_AT_EPOCH": 1589,
    "BSTAR": -0.00068792,
    "MEAN_MOTION_DOT": -0.00019154,
    "MEAN_MOTION_DDOT": 0
  },
  {
    "OBJECT_NAME": "STARLINK-32802",
    "OBJECT_ID": "2025-014D",
    "EPOCH": "2025-05-04T05:04:45.930144",
    "MEAN_MOTION": 15.40705899,
    "ECCENTRICITY": 0.0001537,
    "INCLINATION": 43.0042,
    "RA_OF_ASC_NODE": 103.2916,
    "ARG_OF_PERICENTER": 266.3765,
    "MEAN_ANOMALY": 93.6916,
    "EPHEMERIS_TYPE": 0,
    "CLASSIFICATION_TYPE": "U",
    "NORAD_CAT_ID": 62738,
    "ELEMENT_SET_NO": 999,
    "REV_AT_EPOCH": 1591,
    "BSTAR": 1.0276e-06,
    "MEAN_MOTION_DOT": -2.61e-06,
    "MEAN_MOTION_DDOT": 0
  },
  {
    "OBJECT_NAME": "STARLINK-32796",
    "OBJECT_ID": "2025-014E",
    "EPOCH": "2025-05-04T05:37:00.263712",
    "MEAN_MOTION": 15.40739886,
    "ECCENTRICITY": 0.0001269,
    "INCLINATION": 43.0026,
    "RA_OF_ASC_NODE": 103.4608,
    "ARG_OF_PERICENTER": 276.0165,
    "MEAN_ANOMALY": 84.0547,
    "EPHEMERIS_TYPE": 0,
    "CLASSIFICATION_TYPE": "U",
    "NORAD_CAT_ID": 62739,
    "ELEMENT_SET_NO": 999,
    "REV_AT_EPOCH": 1591,
    "BSTAR": -0.00023592,
    "MEAN_MOTION_DOT": -0.00010158,
    "MEAN_MOTION_DDOT": 0
  },
  {
    "OBJECT_NAME": "STARLINK-32805",
    "OBJECT_ID": "2025-014F",
    "EPOCH": "2025-05-03T10:11:48.590880",
    "MEAN_MOTION": 15.40700807,
    "ECCENTRICITY": 0.0001316,
    "INCLINATION": 43.0019,
    "RA_OF_ASC_NODE": 108.5739,
    "ARG_OF_PERICENTER": 269.7747,
    "MEAN_ANOMALY": 90.2958,
    "EPHEMERIS_TYPE": 0,
    "CLASSIFICATION_TYPE": "U",
    "NORAD_CAT_ID": 62740,
    "ELEMENT_SET_NO": 999,
    "REV_AT_EPOCH": 1578,
    "BSTAR": 4.6607e-06,
    "MEAN_MOTION_DOT": -1.09e-06,
    "MEAN_MOTION_DDOT": 0
  },
  {
    "OBJECT_NAME": "STARLINK-32770",
    "OBJECT_ID": "2025-014G",
    "EPOCH": "2025-05-04T05:27:34.148448",
    "MEAN_MOTION": 15.40664551,
    "ECCENTRICITY": 0.0002116,
    "INCLINATION": 43.0006,
    "RA_OF_ASC_NODE": 104.2774,
    "ARG_OF_PERICENTER": 275.3715,
    "MEAN_ANOMALY": 84.69,
    "EPHEMERIS_TYPE": 0,
    "CLASSIFICATION_TYPE": "U",
    "NORAD_CAT_ID": 62741,
    "ELEMENT_SET_NO": 999,
    "REV_AT_EPOCH": 1590,
    "BSTAR": 3.7704e-05,
    "MEAN_MOTION_DOT": 1.27e-05,
    "MEAN_MOTION_DDOT": 0
  },
  {
    "OBJECT_NAME": "STARLINK-32775",
    "OBJECT_ID": "2025-014H",
    "EPOCH": "2025-05-04T05:43:27.994080",
    "MEAN_MOTION": 15.40695125,
    "ECCENTRICITY": 0.0001086,
    "INCLINATION": 43.0018,
    "RA_OF_ASC_NODE": 103.494,
    "ARG_OF_PERICENTER": 269.2609,
    "MEAN_ANOMALY": 90.8123,
    "EPHEMERIS_TYPE": 0,
    "CLASSIFICATION_TYPE": "U",
    "NORAD_CAT_ID": 62742,
    "ELEMENT_SET_NO": 999,
    "REV_AT_EPOCH": 1591,
    "BSTAR": 2.7006e-05,
    "MEAN_MOTION_DOT": 8.25e-06,
    "MEAN_MOTION_DDOT": 0
  },
  {
    "OBJECT_NAME": "STARLINK-32800",
    "OBJECT_ID": "2025-014J",
    "EPOCH": "2025-05-03T05:48:58.892256",
    "MEAN_MOTION": 15.27597463,
    "ECCENTRICITY": 0.0001576,
    "INCLINATION": 43.0018,
    "RA_OF_ASC_NODE": 114.9663,
    "ARG_OF_PERICENTER": 213.2292,
    "MEAN_ANOMALY": 146.8461,
    "EPHEMERIS_TYPE": 0,
    "CLASSIFICATION_TYPE": "U",
    "NORAD_CAT_ID": 62743,
    "ELEMENT_SET_NO": 999,
    "REV_AT_EPOCH": 1569,
    "BSTAR": -0.00026162,
    "MEAN_MOTION_DOT": -7.458e-05,
    "MEAN_MOTION_DDOT": 0
  },
  {
    "OBJECT_NAME": "STARLINK-32758",
    "OBJECT_ID": "2025-014K",
    "EPOCH": "2025-05-03T09:44:12.867072",
    "MEAN_MOTION": 15.28419777,
    "ECCENTRICITY": 0.0001136,
    "INCLINATION": 42.9999,
    "RA_OF_ASC_NODE": 110.159,
    "ARG_OF_PERICENTER": 258.1585,
    "MEAN_ANOMALY": 101.914,
    "EPHEMERIS_TYPE": 0,
    "CLASSIFICATION_TYPE": "U",
    "NORAD_CAT_ID": 62744,
    "ELEMENT_SET_NO": 999,
    "REV_AT_EPOCH": 1576,
    "BSTAR": 5.132e-05,
    "MEAN_MOTION_DOT": 1.185e-05,
    "MEAN_MOTION_DDOT": 0
  },
  {
    "OBJECT_NAME": "STARLINK-32746",
    "OBJECT_ID": "2025-014L",
    "EPOCH": "2025-05-04T05:14:28.409568",
    "MEAN_MOTION": 15.40664595,
    "ECCENTRICITY": 0.0001041,
    "INCLINATION": 43.004,
    "RA_OF_ASC_NODE": 103.3386,
    "ARG_OF_PERICENTER": 256.3222,
    "MEAN_ANOMALY": 103.7518,
    "EPHEMERIS_TYPE": 0,
    "CLASSIFICATION_TYPE": "U",
    "NORAD_CAT_ID": 62745,
    "ELEMENT_SET_NO": 999,
    "REV_AT_EPOCH": 1591,
    "BSTAR": -5.9152e-05,
    "MEAN_MOTION_DOT": -2.77e-05,
    "MEAN_MOTION_DDOT": 0
  },
  {
    "OBJECT_NAME": "STARLINK-32780",
    "OBJECT_ID": "2025-014M",
    "EPOCH": "2025-05-04T05:20:52.812672",
    "MEAN_MOTION": 15.40712249,
    "ECCENTRICITY": 7.32e-05,
    "INCLINATION": 43.0013,
    "RA_OF_ASC_NODE": 103.3738,
    "ARG_OF_PERICENTER": 268.4467,
    "MEAN_ANOMALY": 91.6305,
    "EPHEMERIS_TYPE": 0,
    "CLASSIFICATION_TYPE": "U",
    "NORAD_CAT_ID": 62746,
    "ELEMENT_SET_NO": 999,
    "REV_AT_EPOCH": 1591,
    "BSTAR": -4.3242e-05,
    "MEAN_MOTION_DOT": -2.11e-05,
    "MEAN_MOTION_DDOT": 0
  },
  {
    "OBJECT_NAME": "STARLINK-32765",
    "OBJECT_ID": "2025-014N",
    "EPOCH": "2025-05-03T15:23:56.492448",
    "MEAN_MOTION": 15.40705173,
    "ECCENTRICITY": 9.73e-05,
    "INCLINATION": 43.0048,
    "RA_OF_ASC_NODE": 106.7499,
    "ARG_OF_PERICENTER": 279.9571,
    "MEAN_ANOMALY": 80.1176,
    "EPHEMERIS_TYPE": 0,
    "CLASSIFICATION_TYPE": "U",
    "NORAD_CAT_ID": 62747,
    "ELEMENT_SET_NO": 999,
    "REV_AT_EPOCH": 1582,
    "BSTAR": -6.5928e-05,
    "MEAN_MOTION_DOT": -3.057e-05,
    "MEAN_MOTION_DDOT": 0
  },
  {
    "OBJECT_NAME": "STARLINK-32762",
    "OBJECT_ID": "2025-014P",
    "EPOCH": "2025-05-03T15:42:31.520736",
    "MEAN_MOTION": 15.28402802,
    "ECCENTRICITY": 0.0001074,
    "INCLINATION": 42.999,
    "RA_OF_ASC_NODE": 108.5829,
    "ARG_OF_PERICENTER": 265.858,
    "MEAN_ANOMALY": 94.2149,
    "EPHEMERIS_TYPE": 0,
    "CLASSIFICATION_TYPE": "U",
    "NORAD_CAT_ID": 62748,
    "ELEMENT_SET_NO": 999,
    "REV_AT_EPOCH": 1580,
    "BSTAR": -4.4128e-05,
    "MEAN_MOTION_DOT": -1.509e-05,
    "MEAN_MOTION_DDOT": 0
  },
  {
    "OBJECT_NAME": "STARLINK-32761",
    "OBJECT_ID": "2025-014Q",
    "EPOCH": "2025-05-04T06:00:23.294304",
    "MEAN_MOTION": 15.2844182,
    "ECCENTRICITY": 5.22e-05,
    "INCLINATION": 43.0013,
    "RA_OF_ASC_NODE": 105.3153,
    "ARG_OF_PERICENTER": 351.8941,
    "MEAN_ANOMALY": 8.1902,
    "EPHEMERIS_TYPE": 0,
    "CLASSIFICATION_TYPE": "U",
    "NORAD_CAT_ID": 62749,
    "ELEMENT_SET_NO": 999,
    "REV_AT_EPOCH": 1589,
    "BSTAR": 6.2634e-05,
    "MEAN_MOTION_DOT": 1.506e-05,
    "MEAN_MOTION_DDOT": 0
  },
  {
    "OBJECT_NAME": "STARLINK-32763",
    "OBJECT_ID": "2025-014R",
    "EPOCH": "2025-05-04T05:46:41.603520",
    "MEAN_MOTION": 15.40699589,
    "ECCENTRICITY": 0.0001556,
    "INCLINATION": 43.0023,
    "RA_OF_ASC_NODE": 103.5067,
    "ARG_OF_PERICENTER": 264.9339,
    "MEAN_ANOMALY": 95.134,
    "EPHEMERIS_TYPE": 0,
    "CLASSIFICATION_TYPE": "U",
    "NORAD_CAT_ID": 62750,
    "ELEMENT_SET_NO": 999,
    "REV_AT_EPOCH": 1591,
    "BSTAR": -3.1344e-05,
    "MEAN_MOTION_DOT": -1.613e-05,
    "MEAN_MOTION_DDOT": 0
  },
  {
    "OBJECT_NAME": "STARLINK-32759",
    "OBJECT_ID": "2025-014S",
    "EPOCH": "2025-05-04T05:03:30.763872",
    "MEAN_MOTION": 15.27575129,
    "ECCENTRICITY": 0.0001361,
    "INCLINATION": 43.0022,
    "RA_OF_ASC_NODE": 105.883,
    "ARG_OF_PERICENTER": 250.3753,
    "MEAN_ANOMALY": 109.6952,
    "EPHEMERIS_TYPE": 0,
    "CLASSIFICATION_TYPE": "U",
    "NORAD_CAT_ID": 62751,
    "ELEMENT_SET_NO": 999,
    "REV_AT_EPOCH": 1588,
    "BSTAR": -7.1105e-05,
    "MEAN_MOTION_DOT": -2.218e-05,
    "MEAN_MOTION_DDOT": 0
  },
  {
    "OBJECT_NAME": "STARLINK-32756",
    "OBJECT_ID": "2025-014T",
    "EPOCH": "2025-05-03T05:34:46.748064",
    "MEAN_MOTION": 15.40685343,
    "ECCENTRICITY": 0.0001321,
    "INCLINATION": 43.0053,
    "RA_OF_ASC_NODE": 108.8388,
    "ARG_OF_PERICENTER": 266.1631,
    "MEAN_ANOMALY": 93.9075,
    "EPHEMERIS_TYPE": 0,
    "CLASSIFICATION_TYPE": "U",
    "NORAD_CAT_ID": 62752,
    "ELEMENT_SET_NO": 999,
    "REV_AT_EPOCH": 1576,
    "BSTAR": -2.8038e-06,
    "MEAN_MOTION_DOT": -4.2e-06,
    "MEAN_MOTION_DDOT": 0
  },
  {
    "OBJECT_NAME": "STARLINK-32751",
    "OBJECT_ID": "2025-014U",
    "EPOCH": "2025-05-04T05:40:17.215104",
    "MEAN_MOTION": 15.40664895,
    "ECCENTRICITY": 7.16e-05,
    "INCLINATION": 43.0006,
    "RA_OF_ASC_NODE": 103.4725,
    "ARG_OF_PERICENTER": 251.4043,
    "MEAN_ANOMALY": 108.6736,
    "EPHEMERIS_TYPE": 0,
    "CLASSIFICATION_TYPE": "U",
    "NORAD_CAT_ID": 62753,
    "ELEMENT_SET_NO": 999,
    "REV_AT_EPOCH": 1591,
    "BSTAR": -5.8778e-05,
    "MEAN_MOTION_DOT": -2.754e-05,
    "MEAN_MOTION_DDOT": 0
  },
  {
    "OBJECT_NAME": "STARLINK-32740",
    "OBJECT_ID": "2025-014V",
    "EPOCH": "2025-05-04T04:58:30.036576",
    "MEAN_MOTION": 15.40698935,
    "ECCENTRICITY": 0.0001356,
    "INCLINATION": 42.9992,
    "RA_OF_ASC_NODE": 104.1186,
    "ARG_OF_PERICENTER": 271.0109,
    "MEAN_ANOMALY": 89.0592,
    "EPHEMERIS_TYPE": 0,
    "CLASSIFICATION_TYPE": "U",
    "NORAD_CAT_ID": 62754,
    "ELEMENT_SET_NO": 999,
    "REV_AT_EPOCH": 1590,
    "BSTAR": -2.0153e-05,
    "MEAN_MOTION_DOT": -1.145e-05,
    "MEAN_MOTION_DDOT": 0
  }
]